<?xml version="1.0" encoding="UTF-8"?>
<ndm xmlns:xsi="http://www.w3.org/2001/XMLSchema-instance" xsi:noNamespaceSchemaLocation="https://sanaregistry.org/r/ndmxml_unqualified/ndmxml-2.0.0-master-2.0.xsd">
<omm id="CCSDS_OMM_VERS" version="2.0">
<header><CREATION_DATE/><ORIGINATOR/></header><body><segment><metadata><OBJECT_NAME>ONEWEB-0240</OBJECT_NAME><OBJECT_ID>2021-045U</OBJECT_ID><CENTER_NAME>EARTH</CENTER_NAME><REF_FRAME>TEME</REF_FRAME><TIME_SYSTEM>UTC</TIME_SYSTEM><MEAN_ELEMENT_THEORY>SGP4</MEAN_ELEMENT_THEORY></metadata><data><meanElements><EPOCH>2024-10-14T12:26:53.220192</EPOCH><MEAN_MOTION>13.15552125</MEAN_MOTION><ECCENTRICITY>.0002213</ECCENTRICITY><INCLINATION>87.9122</INCLINATION><RA_OF_ASC_NODE>20.7085</RA_OF_ASC_NODE><ARG_OF_PERICENTER>95.3257</ARG_OF_PERICENTER><MEAN_ANOMALY>264.8126</MEAN_ANOMALY></meanElements><tleParameters><EPHEMERIS_TYPE>0</EPHEMERIS_TYPE><CLASSIFICATION_TYPE>U</CLASSIFICATION_TYPE><NORAD_CAT_ID>48785</NORAD_CAT_ID><ELEMENT_SET_NO>999</ELEMENT_SET_NO><REV_AT_EPOCH>16411</REV_AT_EPOCH><BSTAR>.3824E-4</BSTAR><MEAN_MOTION_DOT>.27E-6</MEAN_MOTION_DOT><MEAN_MOTION_DDOT>0</MEAN_MOTION_DDOT></tleParameters></data></segment></body></omm>
<omm id="CCSDS_OMM_VERS" version="2.0">
<header><CREATION_DATE/><ORIGINATOR/></header><body><segment><metadata><OBJECT_NAME>ONEWEB-0246</OBJECT_NAME><OBJECT_ID>2021-045V</OBJECT_ID><CENTER_NAME>EARTH</CENTER_NAME><REF_FRAME>TEME</REF_FRAME><TIME_SYSTEM>UTC</TIME_SYSTEM><MEAN_ELEMENT_THEORY>SGP4</MEAN_ELEMENT_THEORY></metadata><data><meanElements><EPOCH>2024-10-14T12:18:53.477280</EPOCH><MEAN_MOTION>13.15547006</MEAN_MOTION><ECCENTRICITY>.0001973</ECCENTRICITY><INCLINATION>87.9124</INCLINATION><RA_OF_ASC_NODE>20.7156</RA_OF_ASC_NODE><ARG_OF_PERICENTER>104.3727</ARG_OF_PERICENTER><MEAN_ANOMALY>255.7622</MEAN_ANOMALY></meanElements><tleParameters><EPHEMERIS_TYPE>0</EPHEMERIS_TYPE><CLASSIFICATION_TYPE>U</CLASSIFICATION_TYPE><NORAD_CAT_ID>48786</NORAD_CAT_ID><ELEMENT_SET_NO>999</ELEMENT_SET_NO><REV_AT_EPOCH>16398</REV_AT_EPOCH><BSTAR>-.5397E-4</BSTAR><MEAN_MOTION_DOT>-.8E-7</MEAN_MOTION_DOT><MEAN_MOTION_DDOT>0</MEAN_MOTION_DDOT></tleParameters></data></segment></body></omm>
<omm id="CCSDS_OMM_VERS" version="2.0">
<header><CREATION_DATE/><ORIGINATOR/></header><body><segment><metadata><OBJECT_NAME>ONEWEB-0210</OBJECT_NAME><OBJECT_ID>2021-045W</OBJECT_ID><CENTER_NAME>EARTH</CENTER_NAME><REF_FRAME>TEME</REF_FRAME><TIME_SYSTEM>UTC</TIME_SYSTEM><MEAN_ELEMENT_THEORY>SGP4</MEAN_ELEMENT_THEORY></metadata><data><meanElements><EPOCH>2024-10-14T13:31:55.223904</EPOCH><MEAN_MOTION>13.15552095</MEAN_MOTION><ECCENTRICITY>.0002577</ECCENTRICITY><INCLINATION>87.9124</INCLINATION><RA_OF_ASC_NODE>20.7094</RA_OF_ASC_NODE><ARG_OF_PERICENTER>113.5145</ARG_OF_PERICENTER><MEAN_ANOMALY>246.6256</MEAN_ANOMALY></meanElements><tleParameters><EPHEMERIS_TYPE>0</EPHEMERIS_TYPE><CLASSIFICATION_TYPE>U</CLASSIFICATION_TYPE><NORAD_CAT_ID>48787</NORAD_CAT_ID><ELEMENT_SET_NO>999</ELEMENT_SET_NO><REV_AT_EPOCH>16403</REV_AT_EPOCH><BSTAR>.67622E-3</BSTAR><MEAN_MOTION_DOT>.267E-5</MEAN_MOTION_DOT><MEAN_MOTION_DDOT>0</MEAN_MOTION_DDOT></tleParameters></data></segment></body></omm>
<omm id="CCSDS_OMM_VERS" version="2.0">
<header><CREATION_DATE/><ORIGINATOR/></header><body><segment><metadata><OBJECT_NAME>ONEWEB-0214</OBJECT_NAME><OBJECT_ID>2021-045X</OBJECT_ID><CENTER_NAME>EARTH</CENTER_NAME><REF_FRAME>TEME</REF_FRAME><TIME_SYSTEM>UTC</TIME_SYSTEM><MEAN_ELEMENT_THEORY>SGP4</MEAN_ELEMENT_THEORY></metadata><data><meanElements><EPOCH>2024-10-14T11:56:05.015328</EPOCH><MEAN_MOTION>13.15546316</MEAN_MOTION><ECCENTRICITY>.0002227</ECCENTRICITY><INCLINATION>87.9124</INCLINATION><RA_OF_ASC_NODE>20.7113</RA_OF_ASC_NODE><ARG_OF_PERICENTER>115.0048</ARG_OF_PERICENTER><MEAN_ANOMALY>245.1314</MEAN_ANOMALY></meanElements><tleParameters><EPHEMERIS_TYPE>0</EPHEMERIS_TYPE><CLASSIFICATION_TYPE>U</CLASSIFICATION_TYPE><NORAD_CAT_ID>48788</NORAD_CAT_ID><ELEMENT_SET_NO>999</ELEMENT_SET_NO><REV_AT_EPOCH>16399</REV_AT_EPOCH><BSTAR>.24259E-3</BSTAR><MEAN_MOTION_DOT>.104E-5</MEAN_MOTION_DOT><MEAN_MOTION_DDOT>0</MEAN_MOTION_DDOT></tleParameters></data></segment></body></omm>
<omm id="CCSDS_OMM_VERS" version="2.0">
<header><CREATION_DATE/><ORIGINATOR/></header><body><segment><metadata><OBJECT_NAME>ONEWEB-0221</OBJECT_NAME><OBJECT_ID>2021-045Y</OBJECT_ID><CENTER_NAME>EARTH</CENTER_NAME><REF_FRAME>TEME</REF_FRAME><TIME_SYSTEM>UTC</TIME_SYSTEM><MEAN_ELEMENT_THEORY>SGP4</MEAN_ELEMENT_THEORY></metadata><data><meanElements><EPOCH>2024-10-15T04:30:54.934848</EPOCH><MEAN_MOTION>13.15546775</MEAN_MOTION><ECCENTRICITY>.0002023</ECCENTRICITY><INCLINATION>87.9128</INCLINATION><RA_OF_ASC_NODE>20.5955</RA_OF_ASC_NODE><ARG_OF_PERICENTER>97.9276</ARG_OF_PERICENTER><MEAN_ANOMALY>262.2084</MEAN_ANOMALY></meanElements><tleParameters><EPHEMERIS_TYPE>0</EPHEMERIS_TYPE><CLASSIFICATION_TYPE>U</CLASSIFICATION_TYPE><NORAD_CAT_ID>48789</NORAD_CAT_ID><ELEMENT_SET_NO>999</ELEMENT_SET_NO><REV_AT_EPOCH>16531</REV_AT_EPOCH><BSTAR>.28518E-3</BSTAR><MEAN_MOTION_DOT>.12E-5</MEAN_MOTION_DOT><MEAN_MOTION_DDOT>0</MEAN_MOTION_DDOT></tleParameters></data></segment></body></omm>
<omm id="CCSDS_OMM_VERS" version="2.0">
<header><CREATION_DATE/><ORIGINATOR/></header><body><segment><metadata><OBJECT_NAME>ONEWEB-0213</OBJECT_NAME><OBJECT_ID>2021-045Z</OBJECT_ID><CENTER_NAME>EARTH</CENTER_NAME><REF_FRAME>TEME</REF_FRAME><TIME_SYSTEM>UTC</TIME_SYSTEM><MEAN_ELEMENT_THEORY>SGP4</MEAN_ELEMENT_THEORY></metadata><data><meanElements><EPOCH>2024-10-14T11:49:14.629152</EPOCH><MEAN_MOTION>13.15548750</MEAN_MOTION><ECCENTRICITY>.0002228</ECCENTRICITY><INCLINATION>87.9124</INCLINATION><RA_OF_ASC_NODE>20.7448</RA_OF_ASC_NODE><ARG_OF_PERICENTER>102.2525</ARG_OF_PERICENTER><MEAN_ANOMALY>257.8855</MEAN_ANOMALY></meanElements><tleParameters><EPHEMERIS_TYPE>0</EPHEMERIS_TYPE><CLASSIFICATION_TYPE>U</CLASSIFICATION_TYPE><NORAD_CAT_ID>48790</NORAD_CAT_ID><ELEMENT_SET_NO>999</ELEMENT_SET_NO><REV_AT_EPOCH>16414</REV_AT_EPOCH><BSTAR>-.48252E-3</BSTAR><MEAN_MOTION_DOT>-.169E-5</MEAN_MOTION_DOT><MEAN_MOTION_DDOT>0</MEAN_MOTION_DDOT></tleParameters></data></segment></body></omm>
<omm id="CCSDS_OMM_VERS" version="2.0">
<header><CREATION_DATE/><ORIGINATOR/></header><body><segment><metadata><OBJECT_NAME>ONEWEB-0212</OBJECT_NAME><OBJECT_ID>2021-045AA</OBJECT_ID><CENTER_NAME>EARTH</CENTER_NAME><REF_FRAME>TEME</REF_FRAME><TIME_SYSTEM>UTC</TIME_SYSTEM><MEAN_ELEMENT_THEORY>SGP4</MEAN_ELEMENT_THEORY></metadata><data><meanElements><EPOCH>2024-10-15T05:31:22.715328</EPOCH><MEAN_MOTION>13.15546286</MEAN_MOTION><ECCENTRICITY>.000181</ECCENTRICITY><INCLINATION>87.9126</INCLINATION><RA_OF_ASC_NODE>20.5844</RA_OF_ASC_NODE><ARG_OF_PERICENTER>97.9387</ARG_OF_PERICENTER><MEAN_ANOMALY>262.1949</MEAN_ANOMALY></meanElements><tleParameters><EPHEMERIS_TYPE>0</EPHEMERIS_TYPE><CLASSIFICATION_TYPE>U</CLASSIFICATION_TYPE><NORAD_CAT_ID>48791</NORAD_CAT_ID><ELEMENT_SET_NO>999</ELEMENT_SET_NO><REV_AT_EPOCH>16537</REV_AT_EPOCH><BSTAR>.19237E-3</BSTAR><MEAN_MOTION_DOT>.85E-6</MEAN_MOTION_DOT><MEAN_MOTION_DDOT>0</MEAN_MOTION_DDOT></tleParameters></data></segment></body></omm>
<omm id="CCSDS_OMM_VERS" version="2.0">
<header><CREATION_DATE/><ORIGINATOR/></header><body><segment><metadata><OBJECT_NAME>ONEWEB-0227</OBJECT_NAME><OBJECT_ID>2021-045AB</OBJECT_ID><CENTER_NAME>EARTH</CENTER_NAME><REF_FRAME>TEME</REF_FRAME><TIME_SYSTEM>UTC</TIME_SYSTEM><MEAN_ELEMENT_THEORY>SGP4</MEAN_ELEMENT_THEORY></metadata><data><meanElements><EPOCH>2024-10-14T16:43:35.140800</EPOCH><MEAN_MOTION>13.15546304</MEAN_MOTION><ECCENTRICITY>.0002</ECCENTRICITY><INCLINATION>87.9121</INCLINATION><RA_OF_ASC_NODE>20.7042</RA_OF_ASC_NODE><ARG_OF_PERICENTER>98.8544</ARG_OF_PERICENTER><MEAN_ANOMALY>261.2813</MEAN_ANOMALY></meanElements><tleParameters><EPHEMERIS_TYPE>0</EPHEMERIS_TYPE><CLASSIFICATION_TYPE>U</CLASSIFICATION_TYPE><NORAD_CAT_ID>48792</NORAD_CAT_ID><ELEMENT_SET_NO>999</ELEMENT_SET_NO><REV_AT_EPOCH>16411</REV_AT_EPOCH><BSTAR>.11002E-3</BSTAR><MEAN_MOTION_DOT>.54E-6</MEAN_MOTION_DOT><MEAN_MOTION_DDOT>0</MEAN_MOTION_DDOT></tleParameters></data></segment></body></omm>
<omm id="CCSDS_OMM_VERS" version="2.0">
<header><CREATION_DATE/><ORIGINATOR/></header><body><segment><metadata><OBJECT_NAME>ONEWEB-0226</OBJECT_NAME><OBJECT_ID>2021-045AC</OBJECT_ID><CENTER_NAME>EARTH</CENTER_NAME><REF_FRAME>TEME</REF_FRAME><TIME_SYSTEM>UTC</TIME_SYSTEM><MEAN_ELEMENT_THEORY>SGP4</MEAN_ELEMENT_THEORY></metadata><data><meanElements><EPOCH>2024-10-14T23:52:33.191904</EPOCH><MEAN_MOTION>13.15550649</MEAN_MOTION><ECCENTRICITY>.0002349</ECCENTRICITY><INCLINATION>87.9122</INCLINATION><RA_OF_ASC_NODE>20.6506</RA_OF_ASC_NODE><ARG_OF_PERICENTER>106.6385</ARG_OF_PERICENTER><MEAN_ANOMALY>253.5004</MEAN_ANOMALY></meanElements><tleParameters><EPHEMERIS_TYPE>0</EPHEMERIS_TYPE><CLASSIFICATION_TYPE>U</CLASSIFICATION_TYPE><NORAD_CAT_ID>48793</NORAD_CAT_ID><ELEMENT_SET_NO>999</ELEMENT_SET_NO><REV_AT_EPOCH>16524</REV_AT_EPOCH><BSTAR>-.62117E-3</BSTAR><MEAN_MOTION_DOT>-.221E-5</MEAN_MOTION_DOT><MEAN_MOTION_DDOT>0</MEAN_MOTION_DDOT></tleParameters></data></segment></body></omm>

</ndm>
